3CAT-2                  
1 41732U 16051B   17278.74437924  .00002933  00000-0  11926-3 0  9994
2 41732  97.3714 194.0838 0012050 241.1989 203.4865 15.25277237 63384
SKYSAT-C4               
1 41771U 16058B   17279.27162133  .00001266  00000-0  57738-4 0  9990
2 41771  97.3861 350.3461 0002439  75.6796 284.4707 15.22434213 58581
SKYSAT-C5               
1 41772U 16058C   17278.89088659  .00001394  00000-0  63151-4 0  9996
2 41772  97.3827 349.7442 0003558  66.7734 293.3836 15.22499794 58511
SKYSAT-C2               
1 41773U 16058D   17279.24529669  .00001480  00000-0  66979-4 0  9995
2 41773  97.3862 350.3833 0000913  66.9296 293.1984 15.22443866 58577
SKYSAT-C3               
1 41774U 16058E   17278.79899288  .00000994  00000-0  45918-4 0  9991
2 41774  97.3863 349.9165 0002017  57.9333 302.2082 15.22464857 58507
ALSAT 1B                
1 41785U 16059C   17278.79632504  .00000051  00000-0  19198-4 0  9995
2 41785  98.1539 339.1648 0031296 170.3027 189.8774 14.63245670 54750
PATHFINDER 1            
1 41787U 16059E   17278.72710719  .00000153  00000-0  38654-4 0  9996
2 41787  98.1548 339.2856 0030227 171.0213 189.1532 14.63545266 54751
WORLDVIEW-4 (WV-4)      
1 41848U 16067A   17279.46767215  .00000185  00000-0  28222-4 0  9993
2 41848  97.9383 353.0923 0002792  71.0294 289.1222 14.84773233 48778
GOKTURK 1A              
1 41875U 16073A   17279.11650206 -.00001120  00000-0 -21055-3 0  9991
2 41875  98.1390 172.5703 0001449  87.1934 273.0570 14.62780104 44513
RESOURCESAT-2A          
1 41877U 16074A   17278.83867638 -.00000504  00000-0 -20973-3 0  9994
2 41877  98.6995 352.8728 0001323  60.4484 299.6849 14.21627149 43006
CARTOSAT-2D             
1 41948U 17008A   17278.87068022  .00001054  00000-0  53272-4 0  9993
2 41948  97.4819 338.6411 0006816 180.3145 179.8087 15.19250317 35322
SENTINEL-2B             
1 42063U 17013A   17279.40314349 -.00000817  00000-0 -29516-3 0  9995
2 42063  98.5670 352.7173 0001176  83.9311 276.2023 14.30810438 30513
ZHUHAI-1 02 (CAS 4B)    
1 42759U 17034B   17278.79663243  .00000979  00000-0  74381-4 0  9999
2 42759  43.0201  39.5745 0008832 313.9399 175.2376 15.09033985 17013
NUSAT-3 (MILANESAT)     
1 42760U 17034C   17278.75103813  .00001487  00000-0  10647-3 0  9998
2 42760  43.0180  40.0288 0008017 319.0333 189.3723 15.08826317 17010
ZHUHAI-1 01 (CAS 4A)    
1 42761U 17034D   17278.86031490  .00000932  00000-0  71349-4 0  9993
2 42761  43.0192  39.1559 0009302 315.9468 189.6297 15.09108333 17017
CARTOSAT-2E             
1 42767U 17036C   17279.41032548  .00001089  00000-0  54873-4 0  9995
2 42767  97.4376 337.6149 0008072 228.7255 131.3285 15.19247522 15978
